NORAD_CAT_ID,OBJECT_NAME,OBJECT_TYPE,EPOCH,MEAN_MOTION,ECCENTRICITY,INCLINATION,RA_OF_ASC_NODE,ARG_OF_PERICENTER,MEAN_ANOMALY,BSTAR,MEAN_MOTION_DOT,MEAN_MOTION_DDOT,TLE_LINE0,TLE_LINE1,TLE_LINE2,SEMIMAJOR_AXIS,PERIOD,APOGEE,PERIGEE,DECAYED
53748.0,STARLINK-4669,PAYLOAD,2023-07-07 15:49:34,15.0884668,0.0001082,53.2177,325.8571,84.1711,275.9405,0.00015405,2.165e-05,0.0,0 STARLINK-4669,1 53748U 22107BA  23188.65942740  .00002165  00000-0  15405-3 0  9990,2 53748  53.2177 325.8571 0001082  84.1711 275.9405 15.08846680 46466,6917.86,95.437,540.473,538.976,0.0
53748.0,STARLINK-4669,PAYLOAD,2023-07-08 09:18:49,15.08841968,0.000107,53.2168,322.5858,92.0522,268.0593,5.7495e-05,6.27e-06,0.0,0 STARLINK-4669,1 53748U 22107BA  23189.38807030  .00000627  00000-0  57495-4 0  9990,2 53748  53.2168 322.5858 0001070  92.0522 268.0593 15.08841968 46570,6917.874,95.437,540.48,538.999,0.0
53748.0,STARLINK-4669,PAYLOAD,2023-07-09 12:20:23,15.08832056,0.0001097,53.219,317.532,97.9762,262.1355,-2.7565e-05,-7.26e-06,0.0,0 STARLINK-4669,1 53748U 22107BA  23190.51415896 -.00000726  00000-0 -27565-4 0  9999,2 53748  53.2190 317.5320 0001097  97.9762 262.1355 15.08832056 46740,6917.905,95.438,540.529,539.011,0.0
53748.0,STARLINK-4669,PAYLOAD,2023-07-10 09:00:23,15.08838776,0.0001037,53.219,313.666,101.3967,258.7142,8.4629e-05,1.059e-05,0.0,0 STARLINK-4669,1 53748U 22107BA  23191.37527361  .00001059  00000-0  84629-4 0  9997,2 53748  53.2190 313.6660 0001037 101.3967 258.7142 15.08838776 46879,6917.884,95.438,540.467,539.032,0.0
53748.0,STARLINK-4669,PAYLOAD,2023-07-11 08:51:11,15.0882272,9.99e-05,53.218,309.2053,94.985,265.1256,0.0002288,3.354e-05,0.0,0 STARLINK-4669,1 53748U 22107BA  23192.36888200  .00003354  00000-0  22880-3 0  9999,2 53748  53.2180 309.2053 0000999  94.9850 265.1256 15.08822720 47027,6917.933,95.439,540.489,539.107,0.0
53748.0,STARLINK-4669,PAYLOAD,2023-07-12 00:45:02,15.08840956,9.26e-05,53.2174,306.2322,90.8391,269.2708,0.00010221,1.339e-05,0.0,0 STARLINK-4669,1 53748U 22107BA  23193.03127488  .00001339  00000-0  10221-3 0  9995,2 53748  53.2174 306.2322 0000926  90.8391 269.2708 15.08840956 47120,6917.877,95.437,540.383,539.102,0.0
53748.0,STARLINK-4669,PAYLOAD,2023-07-13 13:18:54,15.08837374,0.0001184,53.2169,299.3915,80.9363,279.1763,-8.0502e-06,-4.16e-06,0.0,0 STARLINK-4669,1 53748U 22107BA  23194.55480131 -.00000416  00000-0 -80502-5 0  9998,2 53748  53.2169 299.3915 0001184  80.9363 279.1763 15.08837374 47356,6917.888,95.438,540.572,538.934,0.0
53748.0,STARLINK-4669,PAYLOAD,2023-07-14 09:58:55,15.0884918,0.0001595,53.2151,295.526,79.4313,280.6858,-2.1733e-06,-3.23e-06,0.0,0 STARLINK-4669,1 53748U 22107BA  23195.41591455 -.00000323  00000-0 -21733-5 0  9994,2 53748  53.2151 295.5260 0001595  79.4313 280.6858 15.08849180 47486,6917.852,95.437,540.821,538.614,0.0
53748.0,STARLINK-4669,PAYLOAD,2023-07-15 09:49:41,15.08841495,0.000122,53.217,291.0673,66.779,293.333,0.00015472,2.175e-05,0.0,0 STARLINK-4669,1 53748U 22107BA  23196.40951369  .00002175  00000-0  15472-3 0  9994,2 53748  53.2170 291.0673 0001220  66.7790 293.3330 15.08841495 47633,6917.876,95.437,540.585,538.897,0.0
53748.0,STARLINK-4669,PAYLOAD,2023-07-16 06:29:43,15.08834793,0.0001157,53.2179,287.2016,96.4228,263.6896,-3.8332e-05,-8.98e-06,0.0,0 STARLINK-4669,1 53748U 22107BA  23197.27064436 -.00000898  00000-0 -38332-4 0  9993,2 53748  53.2179 287.2016 0001157  96.4228 263.6896 15.08834793 47769,6917.896,95.438,540.562,538.961,0.0
53748.0,STARLINK-4669,PAYLOAD,2023-07-17 12:42:02,15.088492,9.63e-05,53.2165,281.5499,87.9854,272.1248,0.00013983,1.939e-05,0.0,0 STARLINK-4669,1 53748U 22107BA  23198.52919564  .00001939  00000-0  13983-3 0  9992,2 53748  53.2165 281.5499 0000963  87.9854 272.1248 15.08849200 47956,6917.852,95.437,540.383,539.051,0.0
53748.0,STARLINK-4669,PAYLOAD,2023-07-18 10:57:27,15.0883999,0.0001168,53.2159,277.3882,91.0282,269.0844,0.00017613,2.516e-05,0.0,0 STARLINK-4669,1 53748U 22107BA  23199.45656497  .00002516  00000-0  17613-3 0  9994,2 53748  53.2159 277.3882 0001168  91.0282 269.0844 15.08839990 48095,6917.88,95.438,540.553,538.937,0.0
53748.0,STARLINK-4669,PAYLOAD,2023-07-19 09:12:51,15.08835922,0.0001279,53.2168,273.2248,100.0326,260.0811,-4.8402e-05,-1.058e-05,0.0,0 STARLINK-4669,1 53748U 22107BA  23200.38392887 -.00001058  00000-0 -48402-4 0  9992,2 53748  53.2168 273.2248 0001279 100.0326 260.0811 15.08835922 48231,6917.893,95.438,540.643,538.873,0.0
53748.0,STARLINK-4669,PAYLOAD,2023-07-20 12:14:24,15.08844218,0.0001451,53.217,268.1684,101.1934,258.9221,7.0662e-05,8.37e-06,0.0,0 STARLINK-4669,1 53748U 22107BA  23201.51000877  .00000837  00000-0  70662-4 0  9998,2 53748  53.2170 268.1684 0001451 101.1934 258.9221 15.08844218 48408,6917.867,95.437,540.736,538.729,0.0
53748.0,STARLINK-4669,PAYLOAD,2023-07-24 13:12:56,15.08838561,0.0001264,53.2156,250.0288,100.8609,259.2525,4.2982e-05,3.96e-06,0.0,0 STARLINK-4669,1 53748U 22107BA  23205.55064978  .00000396  00000-0  42982-4 0  9992,2 53748  53.2156 250.0288 0001264 100.8609 259.2525 15.08838561 49797,6917.885,95.438,540.624,538.875,0.0
53748.0,STARLINK-4669,PAYLOAD,2023-07-25 08:17:33,15.08837392,0.0001186,53.216,246.4613,97.9623,262.1503,5.9115e-05,6.53e-06,0.0,0 STARLINK-4669,1 53748U 22107BA  23206.34553167  .00000653  00000-0  59115-4 0  9995,2 53748  53.2160 246.4613 0001186  97.9623 262.1503 15.08837392 49912,6917.888,95.438,540.574,538.933,0.0
53748.0,STARLINK-4669,PAYLOAD,2023-07-26 11:19:07,15.08837253,0.0001202,53.215,241.4041,96.8247,263.2881,5.4456e-05,5.79e-06,0.0,0 STARLINK-4669,1 53748U 22107BA  23207.47161479  .00000579  00000-0  54456-4 0  9991,2 53748  53.2150 241.4041 0001202  96.8247 263.2881 15.08837253 50087,6917.889,95.438,540.585,538.922,0.0
53748.0,STARLINK-4669,PAYLOAD,2023-07-26 19:16:02,15.08839663,0.0001091,53.2145,239.917,87.7139,272.3978,9.7336e-05,1.262e-05,0.0,0 STARLINK-4669,1 53748U 22107BA  23207.80281247  .00001262  00000-0  97336-4 0  9998,2 53748  53.2145 239.9170 0001091  87.7139 272.3978 15.08839663 50132,6917.881,95.438,540.501,538.992,0.0
53748.0,STARLINK-4669,PAYLOAD,2023-07-27 01:37:35,15.08840338,0.0001084,53.2148,238.7275,87.843,272.2686,9.8218e-05,1.276e-05,0.0,0 STARLINK-4669,1 53748U 22107BA  23208.06777224  .00001276  00000-0  98218-4 0  9997,2 53748  53.2148 238.7275 0001084  87.8430 272.2686 15.08840338 50175,6917.879,95.438,540.494,538.994,0.0
53748.0,STARLINK-4669,PAYLOAD,2023-07-27 19:06:49,15.088418,0.0001121,53.2154,235.4569,88.5216,271.5905,9.955e-05,1.297e-05,0.0,0 STARLINK-4669,1 53748U 22107BA  23208.79641124  .00001297  00000-0  99550-4 0  9999,2 53748  53.2154 235.4569 0001121  88.5216 271.5905 15.08841800 50287,6917.875,95.437,540.515,538.964,0.0
53748.0,STARLINK-4669,PAYLOAD,2023-07-28 01:28:22,15.08835416,0.0001183,53.2157,234.2681,89.5394,270.5734,4.3925e-05,4.11e-06,0.0,0 STARLINK-4669,1 53748U 22107BA  23209.06137725  .00000411  00000-0  43925-4 0  9999,2 53748  53.2157 234.2681 0001183  89.5394 270.5734 15.08835416 49540,6917.894,95.438,540.578,538.941,0.0
53748.0,STARLINK-4669,PAYLOAD,2023-07-28 11:00:41,15.0883509,0.0001172,53.2154,232.4836,89.5335,270.5791,3.3358e-05,2.43e-06,0.0,0 STARLINK-4669,1 53748U 22107BA  23209.45881875  .00000243  00000-0  33358-4 0  9996,2 53748  53.2154 232.4836 0001172  89.5335 270.5791 15.08835090 50387,6917.895,95.438,540.571,538.95,0.0
53748.0,STARLINK-4669,PAYLOAD,2023-07-29 07:40:42,15.08840796,0.0001227,53.2154,228.6179,89.0489,271.0643,3.8376e-05,3.23e-06,0.0,0 STARLINK-4669,1 53748U 22107BA  23210.31993524  .00000323  00000-0  38376-4 0  9992,2 53748  53.2154 228.6179 0001227  89.0489 271.0643 15.08840796 49738,6917.878,95.438,540.592,538.894,0.0
53748.0,STARLINK-4669,PAYLOAD,2023-07-30 10:42:15,15.08841538,0.0001123,53.2154,223.5623,87.8572,272.2548,9.8844e-05,1.286e-05,0.0,0 STARLINK-4669,1 53748U 22107BA  23211.44601389  .00001286  00000-0  98844-4 0  9997,2 53748  53.2154 223.5623 0001123  87.8572 272.2548 15.08841538 49901,6917.876,95.437,540.518,538.964,0.0
53748.0,STARLINK-4669,PAYLOAD,2023-07-31 23:16:08,15.08837537,0.000114,53.2153,216.7224,90.6233,269.4889,1.9262e-05,1.9e-07,0.0,0 STARLINK-4669,1 53748U 22107BA  23212.96953805  .00000019  00000-0  19262-4 0  9998,2 53748  53.2153 216.7224 0001140  90.6233 269.4889 15.08837537 50133,6917.888,95.438,540.542,538.964,0.0
53748.0,STARLINK-4669,PAYLOAD,2023-08-02 00:42:18,15.08835644,0.0001134,53.2155,211.9648,90.1443,269.9679,4.6066e-06,-2.14e-06,0.0,0 STARLINK-4669,1 53748U 22107BA  23214.02938067 -.00000214  00000-0  46066-5 0  9991,2 53748  53.2155 211.9648 0001134  90.1443 269.9679 15.08835644 50299,6917.894,95.438,540.543,538.974,0.0
53748.0,STARLINK-4669,PAYLOAD,2023-08-03 06:54:38,15.08838669,0.0001125,53.216,206.315,93.9271,266.185,7.9384e-05,9.76e-06,0.0,0 STARLINK-4669,1 53748U 22107BA  23215.28793991  .00000976  00000-0  79384-4 0  9997,2 53748  53.2160 206.3150 0001125  93.9271 266.1850 15.08838669 50482,6917.884,95.438,540.528,538.971,0.0
53748.0,STARLINK-4669,PAYLOAD,2023-08-04 16:17:44,15.0883934,0.0001145,53.2163,200.0701,89.4425,270.6699,5.968e-05,6.62e-06,0.0,0 STARLINK-4669,1 53748U 22107BA  23216.67898237  .00000662  00000-0  59680-4 0  9999,2 53748  53.2163 200.0701 0001145  89.4425 270.6699 15.08839340 50692,6917.882,95.438,540.54,538.955,0.0
53748.0,STARLINK-4669,PAYLOAD,2023-08-05 08:11:34,15.08848025,0.0001183,53.2164,197.0955,86.7917,273.3211,0.00011017,1.466e-05,0.0,0 STARLINK-4669,1 53748U 22107BA  23217.34137554  .00001466  00000-0  11017-3 0  9996,2 53748  53.2164 197.0955 0001183  86.7917 273.3211 15.08848025 50798,6917.856,95.437,540.539,538.902,0.0
53748.0,STARLINK-4669,PAYLOAD,2023-08-06 04:51:35,15.0884321,0.0001252,53.2164,193.2286,92.9568,267.1567,7.2045e-05,8.59e-06,0.0,0 STARLINK-4669,1 53748U 22107BA  23218.20249826  .00000859  00000-0  72045-4 0  9992,2 53748  53.2164 193.2286 0001252  92.9568 267.1567 15.08843210 50922,6917.871,95.437,540.602,538.869,0.0
